[{"OBJECT_NAME":"STARLINK-35520","OBJECT_ID":"2025-237V","EPOCH":"2026-03-09T05:46:47.394912","MEAN_MOTION":15.30186255,"ECCENTRICITY":0.00016271,"INCLINATION":53.1616,"RA_OF_ASC_NODE":41.5824,"ARG_OF_PERICENTER":67.2085,"MEAN_ANOMALY":292.9088,"EPHEMERIS_TYPE":0,"CLASSIFICATION_TYPE":"U","NORAD_CAT_ID":66133,"ELEMENT_SET_NO":999,"REV_AT_EPOCH":2254,"BSTAR":0.00049775902,"MEAN_MOTION_DOT":0.00014405,"MEAN_MOTION_DDOT":0},{"OBJECT_NAME":"FENGYUN 1C DEB","OBJECT_ID":"1999-025FBF","EPOCH":"2026-03-06T07:33:49.292640","MEAN_MOTION":15.04395515,"ECCENTRICITY":0.01189701,"INCLINATION":98.9505,"RA_OF_ASC_NODE":84.7158,"ARG_OF_PERICENTER":75.0888,"MEAN_ANOMALY":286.3472,"EPHEMERIS_TYPE":0,"CLASSIFICATION_TYPE":"U","NORAD_CAT_ID":47029,"ELEMENT_SET_NO":999,"REV_AT_EPOCH":4330,"BSTAR":0.0027080259,"MEAN_MOTION_DOT":0.00044409,"MEAN_MOTION_DDOT":0}]
